[{"OBJECT_NAME":"SITRO-AIS 23","OBJECT_ID":"2024-199H","EPOCH":"2026-03-09T22:39:00.533088","MEAN_MOTION":14.95417613,"ECCENTRICITY":0.001348,"INCLINATION":97.3327,"RA_OF_ASC_NODE":273.3902,"ARG_OF_PERICENTER":42.7028,"MEAN_ANOMALY":317.5239,"EPHEMERIS_TYPE":0,"CLASSIFICATION_TYPE":"U","NORAD_CAT_ID":61742,"ELEMENT_SET_NO":999,"REV_AT_EPOCH":11693,"BSTAR":0.00028445892,"MEAN_MOTION_DOT":3.096e-5,"MEAN_MOTION_DDOT":0},{"OBJECT_NAME":"STARLINK-34388","OBJECT_ID":"2025-123D","EPOCH":"2026-03-09T17:54:45.198144","MEAN_MOTION":14.9832904,"ECCENTRICITY":0.00032892,"INCLINATION":70.0023,"RA_OF_ASC_NODE":194.4439,"ARG_OF_PERICENTER":266.0952,"MEAN_ANOMALY":93.9832,"EPHEMERIS_TYPE":0,"CLASSIFICATION_TYPE":"U","NORAD_CAT_ID":64294,"ELEMENT_SET_NO":999,"REV_AT_EPOCH":4284,"BSTAR":0.00020458474,"MEAN_MOTION_DOT":2.349e-5,"MEAN_MOTION_DDOT":0}]
